var class_oddity_1_1_models_1_1_common_1_1_space_track_info =
[
    [ "Apoapsis", "class_oddity_1_1_models_1_1_common_1_1_space_track_info.html#a6c59e4ab695de577dbba58f30961f937", null ],
    [ "ArgOfPericenter", "class_oddity_1_1_models_1_1_common_1_1_space_track_info.html#a32c78d9514fb90686383aa9b840feda9", null ],
    [ "Bstar", "class_oddity_1_1_models_1_1_common_1_1_space_track_info.html#ab11494d8711bc6fba3a63d8993c76dac", null ],
    [ "CcsdsOmmVers", "class_oddity_1_1_models_1_1_common_1_1_space_track_info.html#a7c4ccbda48fe8e90073ffd6c2711314b", null ],
    [ "CenterName", "class_oddity_1_1_models_1_1_common_1_1_space_track_info.html#ac99b88db6145a174d1710544b9aeac36", null ],
    [ "ClassificationType", "class_oddity_1_1_models_1_1_common_1_1_space_track_info.html#a4a1cc9aee53f74181d9ec3b77508baf8", null ],
    [ "Comment", "class_oddity_1_1_models_1_1_common_1_1_space_track_info.html#ad03db3a6d7056c14a8335084f3b3a6e1", null ],
    [ "CountryCode", "class_oddity_1_1_models_1_1_common_1_1_space_track_info.html#a78b660b653e80e87d3a26994c4265bfe", null ],
    [ "CreationDate", "class_oddity_1_1_models_1_1_common_1_1_space_track_info.html#a80120169fcd0aa818947dea76e299378", null ],
    [ "DecayDate", "class_oddity_1_1_models_1_1_common_1_1_space_track_info.html#a52b50d19040803d9f0015fb51cb2f983", null ],
    [ "Decayed", "class_oddity_1_1_models_1_1_common_1_1_space_track_info.html#a13bd54d6391be423162c256ddf398559", null ],
    [ "Eccentricity", "class_oddity_1_1_models_1_1_common_1_1_space_track_info.html#a22e2759cea5263c15df8da06620ae40c", null ],
    [ "EphemerisType", "class_oddity_1_1_models_1_1_common_1_1_space_track_info.html#a4d22223e4027614dfeed9bc6f95c77e5", null ],
    [ "Epoch", "class_oddity_1_1_models_1_1_common_1_1_space_track_info.html#a9c927b77492baaec599226fb093fc4c0", null ],
    [ "File", "class_oddity_1_1_models_1_1_common_1_1_space_track_info.html#abd6b5751365862ec30ab7e3a915ab0a5", null ],
    [ "GpId", "class_oddity_1_1_models_1_1_common_1_1_space_track_info.html#aea4c8815f4f0be57f09cf41927710a8e", null ],
    [ "Inclination", "class_oddity_1_1_models_1_1_common_1_1_space_track_info.html#a0dbbd0421a96a63a4c3a71550f0b90c6", null ],
    [ "LaunchDate", "class_oddity_1_1_models_1_1_common_1_1_space_track_info.html#a77ae5b94f2bf032d1b66bfa40adcb394", null ],
    [ "MeanAnomaly", "class_oddity_1_1_models_1_1_common_1_1_space_track_info.html#a48632b6ab0162c319372e06ddba43441", null ],
    [ "MeanElementTheory", "class_oddity_1_1_models_1_1_common_1_1_space_track_info.html#a06f18c203cb21d2fac1be8224bedbafd", null ],
    [ "MeanMotion", "class_oddity_1_1_models_1_1_common_1_1_space_track_info.html#a84d5bb66810e85bb64c30ac16053e5a6", null ],
    [ "MeanMotionDdot", "class_oddity_1_1_models_1_1_common_1_1_space_track_info.html#af0f69ebcc04638179819642da0a24641", null ],
    [ "MeanMotionDot", "class_oddity_1_1_models_1_1_common_1_1_space_track_info.html#a2ff83822095dc18fddbd7ba6b75c3326", null ],
    [ "NoradCatId", "class_oddity_1_1_models_1_1_common_1_1_space_track_info.html#ad6c683baea29d3a7cc3d74cb0435d03f", null ],
    [ "NoradSetNo", "class_oddity_1_1_models_1_1_common_1_1_space_track_info.html#ade24e133ac008b1bd86da5af2182c9a2", null ],
    [ "ObjectId", "class_oddity_1_1_models_1_1_common_1_1_space_track_info.html#a98b4ad5a35685ce26a2abc0b60e96e47", null ],
    [ "ObjectName", "class_oddity_1_1_models_1_1_common_1_1_space_track_info.html#abe59204f2d9aa8ae9da10fbb634e0138", null ],
    [ "ObjectType", "class_oddity_1_1_models_1_1_common_1_1_space_track_info.html#a5e4f3650de3880afaae256d2c08c4ef5", null ],
    [ "Originator", "class_oddity_1_1_models_1_1_common_1_1_space_track_info.html#a88841a0ff338d685863723799ed23f1e", null ],
    [ "Periapsis", "class_oddity_1_1_models_1_1_common_1_1_space_track_info.html#ad923be0fb41427715c4cec63f6ab403e", null ],
    [ "Period", "class_oddity_1_1_models_1_1_common_1_1_space_track_info.html#ad23369c6a13aed23a38dd5c558d1d854", null ],
    [ "RaOfAscNode", "class_oddity_1_1_models_1_1_common_1_1_space_track_info.html#ad3e56d0953f9e7b77ea51ba666ee0175", null ],
    [ "RcsSize", "class_oddity_1_1_models_1_1_common_1_1_space_track_info.html#a0b7dae57134ea0501e5b1300a8287ce1", null ],
    [ "RefFrame", "class_oddity_1_1_models_1_1_common_1_1_space_track_info.html#a0e0244d717f0eaf9809b800f6cf9740e", null ],
    [ "RevAtEpoch", "class_oddity_1_1_models_1_1_common_1_1_space_track_info.html#ab862e83874baa6ec0c8234798cd1f6b3", null ],
    [ "SemimajorAxis", "class_oddity_1_1_models_1_1_common_1_1_space_track_info.html#a3e0f354135a89e1a701f0ff79673f97f", null ],
    [ "Site", "class_oddity_1_1_models_1_1_common_1_1_space_track_info.html#addb73d1774bb9ad3a993f07e1772f816", null ],
    [ "TimeSystem", "class_oddity_1_1_models_1_1_common_1_1_space_track_info.html#af1b74aa62259950e7adb8a7d25760746", null ],
    [ "TleLine0", "class_oddity_1_1_models_1_1_common_1_1_space_track_info.html#a5eec110f0e3047dcd82e8dc4feacc968", null ],
    [ "TleLine1", "class_oddity_1_1_models_1_1_common_1_1_space_track_info.html#a900d0875c1ec0089478d025a4cb49822", null ],
    [ "TleLine2", "class_oddity_1_1_models_1_1_common_1_1_space_track_info.html#aa6caddda90df1b4ea0e5877da07fb6ec", null ]
];